OBJECT_NAME,OBJECT_ID,EPOCH,MEAN_MOTION,ECCENTRICITY,INCLINATION,RA_OF_ASC_NODE,ARG_OF_PERICENTER,MEAN_ANOMALY,EPHEMERIS_TYPE,CLASSIFICATION_TYPE,NORAD_CAT_ID,ELEMENT_SET_NO,REV_AT_EPOCH,BSTAR,MEAN_MOTION_DOT,MEAN_MOTION_DDOT
STARLINK-4771,2022-114R,2026-06-24T04:58:15.855744,15.08834689,.00012467,53.1585,185.6836,89.9807,270.1328,0,U,53833,999,20891,.18042408E-4,-.1E-7,0
STARLINK-4737,2022-114S,2026-06-24T07:41:07.162656,15.08833698,.00007544,53.1586,184.9687,64.8164,295.2905,0,U,53834,999,20893,.159562E-6,-.285E-5,0
STARLINK-4783,2022-114T,2026-06-24T04:46:18.257952,15.08814594,.00009747,53.1578,185.6336,71.7516,288.3581,0,U,53835,999,20891,-.54514029E-4,-.1155E-4,0
STARLINK-4778,2022-114U,2026-06-24T06:00:02.000160,15.52388127,.00014202,53.2174,167.5156,69.1456,18.2543,0,U,53836,999,580,.10176647E-1,.679569E-2,0
STARLINK-4776,2022-114V,2026-06-24T04:35:39.152832,15.08831438,.00011619,53.1595,185.5892,91.1774,268.9350,0,U,53837,999,20891,.7315065E-5,-.172E-5,0
STARLINK-4773,2022-114W,2026-06-24T07:10:44.147712,15.08835270,.00011144,53.1583,175.5613,76.9823,283.1293,0,U,53838,999,20906,-.22000857E-4,-.638E-5,0
STARLINK-4784,2022-114X,2026-06-24T07:21:20.902752,15.08829566,.00010879,53.1589,175.6069,69.4405,290.6703,0,U,53839,999,20906,.13169258E-4,-.78E-6,0
STARLINK-4766,2022-114Y,2026-06-24T06:00:02.000160,15.29298566,.00021727,53.1605,174.7373,93.7549,175.8576,0,U,53840,999,559,.93901011E-3,.2679E-3,0
STARLINK-4750,2022-114Z,2026-06-24T07:05:25.804320,15.08831382,.00011506,53.1591,175.5381,77.3447,282.7673,0,U,53841,999,20906,-.5785171E-5,-.38E-5,0
STARLINK-4754,2022-114AA,2026-06-24T05:08:49.322400,15.08844886,.00010744,53.1585,175.7442,77.4359,282.6753,0,U,53842,999,20905,.34091432E-4,.255E-5,0
STARLINK-4769,2022-114AB,2026-06-24T07:00:07.384032,15.08813212,.00013778,53.1593,175.5152,81.0555,279.0593,0,U,53843,999,20906,.92228865E-4,.1179E-4,0
STARLINK-4745,2022-114AC,2026-06-24T06:42:53.902656,15.08023237,.00006104,53.1608,175.4659,90.5865,269.5196,0,U,53844,999,20906,.18932976E-4,.9E-7,0
STARLINK-4753,2022-114AD,2026-06-24T06:49:30.935712,15.08839652,.00011226,53.1583,175.4884,73.3615,286.7499,0,U,53845,999,20906,.63633504E-4,.725E-5,0
STARLINK-4746,2022-114AE,2026-06-24T06:22:59.236032,15.08831080,.0001124,53.1583,175.3557,81.6823,278.4296,0,U,53846,999,20906,.4923513E-4,.496E-5,0
STARLINK-4777,2022-114AF,2026-06-24T05:03:30.845952,15.08837350,.00009858,53.1585,175.7208,78.5119,281.5983,0,U,53847,999,20905,.1106961E-5,-.27E-5,0
STARLINK-4780,2022-114AG,2026-06-24T04:36:59.029632,15.08832867,.00006409,53.1586,175.6083,102.7026,257.4037,0,U,53848,999,20905,.5885822E-4,.649E-5,0
STARLINK-4770,2022-114AH,2026-06-24T06:00:02.000160,15.27886194,.00011341,53.1614,174.6728,125.0469,177.2330,0,U,53849,999,575,.21816545E-2,.60322E-3,0
STARLINK-4767,2022-114AJ,2026-06-24T04:21:04.159296,15.08831534,.00012715,53.1583,175.5402,75.7324,284.3808,0,U,53850,999,20905,.47107112E-4,.462E-5,0
STARLINK-4755,2022-114AK,2026-06-24T06:17:40.952256,15.08831373,.00011377,53.1585,175.3324,84.9394,275.1727,0,U,53851,999,20906,.64036343E-4,.731E-5,0
STARLINK-4797,2022-114AL,2026-06-24T05:01:30.709344,15.08846107,.00011736,53.1588,170.7277,78.5982,281.5141,0,U,53852,999,20912,.13027233E-3,.1786E-4,0
STARLINK-4794,2022-114AM,2026-06-24T06:07:03.865440,15.08833499,.00011867,53.1585,175.2878,83.1688,276.9439,0,U,53853,999,20906,.63757509E-4,.727E-5,0
STARLINK-4800,2022-114AN,2026-06-24T05:41:59.872992,15.08828866,.00014272,53.1581,165.9039,88.9307,271.1848,0,U,53854,999,20919,.60297406E-4,.671E-5,0
STARLINK-4703,2022-114AP,2026-06-24T06:00:02.000160,15.27466038,.00006289,53.1604,174.6252,114.0851,211.0038,0,U,53855,999,579,.24133265E-2,.65964E-3,0
STARLINK-4795,2022-114AQ,2026-06-24T06:00:02.000160,15.82373129,.00009633,53.2174,145.7940,126.5378,139.8110,0,U,53856,999,598,.25377311E-2,.573311E-2,0
STARLINK-4809,2022-114AR,2026-06-24T06:00:02.000160,15.23285181,.00014726,53.1607,174.7676,119.3385,135.3321,0,U,53857,999,585,.26267026E-2,.63303E-3,0
STARLINK-4798,2022-114AS,2026-06-24T06:00:02.000160,16.01348414,.00010158,53.2129,134.4311,16.6049,193.0725,0,U,53858,999,576,.1160686E-2,.654753E-2,.20758428E-3
STARLINK-4790,2022-114AT,2026-06-24T05:59:46.039488,15.08836932,.00011188,53.1587,170.2698,74.7403,285.3713,0,U,53859,999,20913,.49773162E-4,.504E-5,0
STARLINK-4799,2022-114AU,2026-06-24T03:50:40.525728,15.08840948,.00011458,53.1588,166.1335,69.4278,290.6837,0,U,53860,999,20894,.34622603E-4,.263E-5,0
STARLINK-4781,2022-114AV,2026-06-24T05:30:28.692864,15.09317181,.00007423,53.1582,165.8585,99.4807,260.6269,0,U,53861,999,20919,.3378552E-2,.54612E-3,0
STARLINK-4788,2022-114AX,2026-06-24T03:40:04.411776,15.08831253,.00011773,53.1593,166.0902,83.6354,276.4771,0,U,53863,999,20918,.29382891E-4,.18E-5,0
