STARLINK-4771           
1 53833U 22114R   26175.20712796 -.00000001  00000+0  18042-4 0  9997
2 53833  53.1585 185.6836 0001246  89.9807 270.1328 15.08834689208917
STARLINK-4737           
1 53834U 22114S   26175.32022179 -.00000285  00000+0  15956-6 0  9997
2 53834  53.1586 184.9687 0000754  64.8164 295.2905 15.08833698208936
STARLINK-4783           
1 53835U 22114T   26175.19882243 -.00001155  00000+0 -54514-4 0  9998
2 53835  53.1578 185.6336 0000974  71.7516 288.3581 15.08814594208914
STARLINK-4778           
1 53836U 22114U   26175.25002315  .00679569  00000+0  10177-1 0  9992
2 53836  53.2174 167.5156 0001420  69.1456  18.2543 15.52388127  5806
STARLINK-4776           
1 53837U 22114V   26175.19142538 -.00000172  00000+0  73151-5 0  9992
2 53837  53.1595 185.5892 0001161  91.1774 268.9350 15.08831438208916
STARLINK-4773           
1 53838U 22114W   26175.29912208 -.00000638  00000+0 -22001-4 0  9998
2 53838  53.1583 175.5613 0001114  76.9823 283.1293 15.08835270209068
STARLINK-4784           
1 53839U 22114X   26175.30649193 -.00000078  00000+0  13169-4 0  9993
2 53839  53.1589 175.6069 0001087  69.4405 290.6703 15.08829566209063
STARLINK-4766           
1 53840U 22114Y   26175.25002315  .00026790  00000+0  93901-3 0  9997
2 53840  53.1605 174.7373 0002172  93.7549 175.8576 15.29298566  5594
STARLINK-4750           
1 53841U 22114Z   26175.29543755 -.00000380  00000+0 -57852-5 0  9996
2 53841  53.1591 175.5381 0001150  77.3447 282.7673 15.08831382209067
STARLINK-4754           
1 53842U 22114AA  26175.21445975  .00000255  00000+0  34091-4 0  9992
2 53842  53.1585 175.7442 0001074  77.4359 282.6753 15.08844886209059
STARLINK-4769           
1 53843U 22114AB  26175.29175213  .00001179  00000+0  92229-4 0  9999
2 53843  53.1593 175.5152 0001377  81.0555 279.0593 15.08813212209062
STARLINK-4745           
1 53844U 22114AC  26175.27979054  .00000009  00000+0  18933-4 0  9994
2 53844  53.1608 175.4659 0000610  90.5865 269.5196 15.08023237209062
STARLINK-4753           
1 53845U 22114AD  26175.28438583  .00000725  00000+0  63634-4 0  9996
2 53845  53.1583 175.4884 0001122  73.3615 286.7499 15.08839652209069
STARLINK-4746           
1 53846U 22114AE  26175.26596338  .00000496  00000+0  49235-4 0  9994
2 53846  53.1583 175.3557 0001124  81.6823 278.4296 15.08831080209061
STARLINK-4777           
1 53847U 22114AF  26175.21077368 -.00000270  00000+0  11070-5 0  9995
2 53847  53.1585 175.7208 0000985  78.5119 281.5983 15.08837350209051
STARLINK-4780           
1 53848U 22114AG  26175.19234988  .00000649  00000+0  58858-4 0  9999
2 53848  53.1586 175.6083 0000640 102.7026 257.4037 15.08832867209058
STARLINK-4770           
1 53849U 22114AH  26175.25002315  .00060322  00000+0  21817-2 0  9991
2 53849  53.1614 174.6728 0001134 125.0469 177.2330 15.27886194  5753
STARLINK-4767           
1 53850U 22114AJ  26175.18129814  .00000462  00000+0  47107-4 0  9990
2 53850  53.1583 175.5402 0001271  75.7324 284.3808 15.08831534209058
STARLINK-4755           
1 53851U 22114AK  26175.26227954  .00000731  00000+0  64036-4 0  9993
2 53851  53.1585 175.3324 0001137  84.9394 275.1727 15.08831373209062
STARLINK-4797           
1 53852U 22114AL  26175.20938321  .00001786  00000+0  13027-3 0  9999
2 53852  53.1588 170.7277 0001173  78.5982 281.5141 15.08846107209123
STARLINK-4794           
1 53853U 22114AM  26175.25490585  .00000727  00000+0  63758-4 0  9991
2 53853  53.1585 175.2878 0001186  83.1688 276.9439 15.08833499209068
STARLINK-4800           
1 53854U 22114AN  26175.23749853  .00000671  00000+0  60297-4 0  9998
2 53854  53.1581 165.9039 0001427  88.9307 271.1848 15.08828866209196
STARLINK-4703           
1 53855U 22114AP  26175.25002315  .00065964  00000+0  24133-2 0  9999
2 53855  53.1604 174.6252 0000628 114.0851 211.0038 15.27466038  5798
STARLINK-4795           
1 53856U 22114AQ  26175.25002315  .00573311  00000+0  25377-2 0  9991
2 53856  53.2174 145.7940 0000963 126.5378 139.8110 15.82373129  5987
STARLINK-4809           
1 53857U 22114AR  26175.25002315  .00063303  00000+0  26267-2 0  9996
2 53857  53.1607 174.7676 0001472 119.3385 135.3321 15.23285181  5856
STARLINK-4798           
1 53858U 22114AS  26175.25002315  .00654753  20758-3  11607-2 0  9990
2 53858  53.2129 134.4311 0001015  16.6049 193.0725 16.01348414  5760
STARLINK-4790           
1 53859U 22114AT  26175.24983842  .00000504  00000+0  49773-4 0  9993
2 53859  53.1587 170.2698 0001118  74.7403 285.3713 15.08836932209139
STARLINK-4799           
1 53860U 22114AU  26175.16019127  .00000263  00000+0  34623-4 0  9992
2 53860  53.1588 166.1335 0001145  69.4278 290.6837 15.08840948208941
STARLINK-4781           
1 53861U 22114AV  26175.22949876  .00054612  00000+0  33786-2 0  9997
2 53861  53.1582 165.8585 0000742  99.4807 260.6269 15.09317181209195
STARLINK-4788           
1 53863U 22114AX  26175.15282884  .00000180  00000+0  29383-4 0  9991
2 53863  53.1593 166.0902 0001177  83.6354 276.4771 15.08831253209182
